{"type": "FeatureCollection", "features": [ {"type": "Feature", "properties": {"norad_id": 57401, "name": "TIANMU-1 09", "group": "weather", "lat": 43.51477973359466, "lon": 23.18140726622548, "alt_km": 475.7112192335908, "timestamp": "2025-12-06T20:37:55.699663+00:00", "meta": {"OBJECT_NAME": "TIANMU-1 09", "OBJECT_ID": "2023-101C", "EPOCH": "2025-12-06T14:09:12.502656", "MEAN_MOTION": 15.27948865, "ECCENTRICITY": 0.00068078, "INCLINATION": 97.2826, "RA_OF_ASC_NODE": 29.8917, "ARG_OF_PERICENTER": 100.485, "MEAN_ANOMALY": 259.7158, "EPHEMERIS_TYPE": 0, "CLASSIFICATION_TYPE": "U", "NORAD_CAT_ID": 57401, "ELEMENT_SET_NO": 999, "REV_AT_EPOCH": 13221, "BSTAR": 0.00044207403, "MEAN_MOTION_DOT": 0.00011999, "MEAN_MOTION_DDOT": 0}, "tle": {"line1": "1 57401U 23101C   25340.58972804  .00011999  00000+0  44207-3 0  9999", "line2": "2 57401  97.2826  29.8917 0006807 100.4850 259.7158 15.27948865132219"}}, "geometry": {"type": "Point", "coordinates": [23.18140726622548, 43.51477973359466]}}, {"type": "Feature", "properties": {"norad_id": 57402, "name": "TIANMU-1 10", "group": "weather", "lat": -36.0720552001644, "lon": -154.35220417730477, "alt_km": 490.9154670241278, "timestamp": "2025-12-06T20:37:55.699680+00:00", "meta": {"OBJECT_NAME": "TIANMU-1 10", "OBJECT_ID": "2023-101D", "EPOCH": "2025-12-06T14:58:25.794624", "MEAN_MOTION": 15.27940395, "ECCENTRICITY": 0.0008541, "INCLINATION": 97.2906, "RA_OF_ASC_NODE": 30.7685, "ARG_OF_PERICENTER": 101.1561, "MEAN_ANOMALY": 259.064, "EPHEMERIS_TYPE": 0, "CLASSIFICATION_TYPE": "U", "NORAD_CAT_ID": 57402, "ELEMENT_SET_NO": 999, "REV_AT_EPOCH": 13221, "BSTAR": 0.00046837649, "MEAN_MOTION_DOT": 0.0001272, "MEAN_MOTION_DDOT": 0}, "tle": {"line1": "1 57402U 23101D   25340.62390966  .00012720  00000+0  46838-3 0  9993", "line2": "2 57402  97.2906  30.7685 0008541 101.1561 259.0640 15.27940395132215"}}, "geometry": {"type": "Point", "coordinates": [-154.35220417730477, -36.0720552001644]}}, {"type": "Feature", "properties": {"norad_id": 57490, "name": "FENGYUN 3F", "group": "weather", "lat": -59.48544332775162, "lon": -145.82675719743472, "alt_km": 833.2357352705176, "timestamp": "2025-12-06T20:37:55.699696+00:00", "meta": {"OBJECT_NAME": "FENGYUN 3F", "OBJECT_ID": "2023-111A", "EPOCH": "2025-12-06T14:25:43.959072", "MEAN_MOTION": 14.19891176, "ECCENTRICITY": 6.622e-05, "INCLINATION": 98.7093, "RA_OF_ASC_NODE": 48.9935, "ARG_OF_PERICENTER": 90.0396, "MEAN_ANOMALY": 270.0856, "EPHEMERIS_TYPE": 0, "CLASSIFICATION_TYPE": "U", "NORAD_CAT_ID": 57490, "ELEMENT_SET_NO": 999, "REV_AT_EPOCH": 12153, "BSTAR": 0.00012052982, "MEAN_MOTION_DOT": 2.12e-06, "MEAN_MOTION_DDOT": 0}, "tle": {"line1": "1 57490U 23111A   25340.60120323  .00000212  00000+0  12053-3 0  9992", "line2": "2 57490  98.7093  48.9935 0000662  90.0396 270.0856 14.19891176121539"}}, "geometry": {"type": "Point", "coordinates": [-145.82675719743472, -59.48544332775162]}}, {"type": "Feature", "properties": {"norad_id": 58584, "name": "ARKTIKA-M 2", "group": "weather", "lat": 16.309086801399655, "lon": -175.97199761976194, "alt_km": 12049.318486537515, "timestamp": "2025-12-06T20:37:55.699715+00:00", "meta": {"OBJECT_NAME": "ARKTIKA-M 2", "OBJECT_ID": "2023-198A", "EPOCH": "2025-12-03T08:34:19.284960", "MEAN_MOTION": 2.00605176, "ECCENTRICITY": 0.68642509, "INCLINATION": 63.2223, "RA_OF_ASC_NODE": 175.9121, "ARG_OF_PERICENTER": 268.1397, "MEAN_ANOMALY": 18.842, "EPHEMERIS_TYPE": 0, "CLASSIFICATION_TYPE": "U", "NORAD_CAT_ID": 58584, "ELEMENT_SET_NO": 999, "REV_AT_EPOCH": 1439, "BSTAR": 0, "MEAN_MOTION_DOT": 2.24e-06, "MEAN_MOTION_DDOT": 0}, "tle": {"line1": "1 58584U 23198A   25337.35716765  .00000224  00000+0  00000+0 0  9999", "line2": "2 58584  63.2223 175.9121 6864250 268.1397  18.8420  2.00605176 14390"}}, "geometry": {"type": "Point", "coordinates": [-175.97199761976194, 16.309086801399655]}}, {"type": "Feature", "properties": {"norad_id": 58645, "name": "TIANMU-1 11", "group": "weather", "lat": 70.01773547698089, "lon": -158.58987450797133, "alt_km": 489.636633013919, "timestamp": "2025-12-06T20:37:55.699735+00:00", "meta": {"OBJECT_NAME": "TIANMU-1 11", "OBJECT_ID": "2023-205A", "EPOCH": "2025-12-06T13:51:23.012352", "MEAN_MOTION": 15.24488081, "ECCENTRICITY": 0.0008492, "INCLINATION": 97.3603, "RA_OF_ASC_NODE": 0.3093, "ARG_OF_PERICENTER": 335.067, "MEAN_ANOMALY": 25.0156, "EPHEMERIS_TYPE": 0, "CLASSIFICATION_TYPE": "U", "NORAD_CAT_ID": 58645, "ELEMENT_SET_NO": 999, "REV_AT_EPOCH": 10815, "BSTAR": 0.00039896571, "MEAN_MOTION_DOT": 9.747e-05, "MEAN_MOTION_DDOT": 0}, "tle": {"line1": "1 58645U 23205A   25340.57734968  .00009747  00000+0  39897-3 0  9998", "line2": "2 58645  97.3603   0.3093 0008492 335.0670  25.0156 15.24488081108155"}}, "geometry": {"type": "Point", "coordinates": [-158.58987450797133, 70.01773547698089]}}, {"type": "Feature", "properties": {"norad_id": 58646, "name": "TIANMU-1 12", "group": "weather", "lat": -36.639636913007756, "lon": 5.91004782236857, "alt_km": 494.65396107035576, "timestamp": "2025-12-06T20:37:55.699755+00:00", "meta": {"OBJECT_NAME": "TIANMU-1 12", "OBJECT_ID": "2023-205B", "EPOCH": "2025-12-06T14:29:32.462880", "MEAN_MOTION": 15.24403421, "ECCENTRICITY": 0.00063209, "INCLINATION": 97.3591, "RA_OF_ASC_NODE": 0.1429, "ARG_OF_PERICENTER": 319.6277, "MEAN_ANOMALY": 40.449, "EPHEMERIS_TYPE": 0, "CLASSIFICATION_TYPE": "U", "NORAD_CAT_ID": 58646, "ELEMENT_SET_NO": 999, "REV_AT_EPOCH": 10814, "BSTAR": 0.00043763592, "MEAN_MOTION_DOT": 0.00010669, "MEAN_MOTION_DDOT": 0}, "tle": {"line1": "1 58646U 23205B   25340.60384795  .00010669  00000+0  43764-3 0  9995", "line2": "2 58646  97.3591   0.1429 0006320 319.6277  40.4490 15.24403421108148"}}, "geometry": {"type": "Point", "coordinates": [5.91004782236857, -36.639636913007756]}}, {"type": "Feature", "properties": {"norad_id": 58647, "name": "TIANMU-1 13", "group": "weather", "lat": 41.187169958018565, "lon": -172.91150119422468, "alt_km": 493.2010378999548, "timestamp": "2025-12-06T20:37:55.699773+00:00", "meta": {"OBJECT_NAME": "TIANMU-1 13", "OBJECT_ID": "2023-205C", "EPOCH": "2025-12-06T13:43:31.703808", "MEAN_MOTION": 15.24409547, "ECCENTRICITY": 0.0006169, "INCLINATION": 97.3618, "RA_OF_ASC_NODE": 0.3098, "ARG_OF_PERICENTER": 295.413, "MEAN_ANOMALY": 64.6469, "EPHEMERIS_TYPE": 0, "CLASSIFICATION_TYPE": "U", "NORAD_CAT_ID": 58647, "ELEMENT_SET_NO": 999, "REV_AT_EPOCH": 10813, "BSTAR": 0.00041210331, "MEAN_MOTION_DOT": 0.00010043, "MEAN_MOTION_DDOT": 0}, "tle": {"line1": "1 58647U 23205C   25340.57189472  .00010043  00000+0  41210-3 0  9997", "line2": "2 58647  97.3618   0.3098 0006169 295.4130  64.6469 15.24409547108131"}}, "geometry": {"type": "Point", "coordinates": [-172.91150119422468, 41.187169958018565]}}, {"type": "Feature", "properties": {"norad_id": 58648, "name": "TIANMU-1 14", "group": "weather", "lat": -49.17969107919935, "lon": 171.34658471344227, "alt_km": 497.79438568913884, "timestamp": "2025-12-06T20:37:55.699790+00:00", "meta": {"OBJECT_NAME": "TIANMU-1 14", "OBJECT_ID": "2023-205D", "EPOCH": "2025-12-06T14:54:03.100608", "MEAN_MOTION": 15.24394393, "ECCENTRICITY": 0.00070682, "INCLINATION": 97.3551, "RA_OF_ASC_NODE": 359.7124, "ARG_OF_PERICENTER": 299.7415, "MEAN_ANOMALY": 60.3119, "EPHEMERIS_TYPE": 0, "CLASSIFICATION_TYPE": "U", "NORAD_CAT_ID": 58648, "ELEMENT_SET_NO": 999, "REV_AT_EPOCH": 10814, "BSTAR": 0.00042376244, "MEAN_MOTION_DOT": 0.00010326, "MEAN_MOTION_DDOT": 0}, "tle": {"line1": "1 58648U 23205D   25340.62086922  .00010326  00000+0  42376-3 0  9998", "line2": "2 58648  97.3551 359.7124 0007068 299.7415  60.3119 15.24394393108149"}}, "geometry": {"type": "Point", "coordinates": [171.34658471344227, -49.17969107919935]}}, {"type": "Feature", "properties": {"norad_id": 58660, "name": "TIANMU-1 19", "group": "weather", "lat": 53.8203355592429, "lon": 81.61680187542527, "alt_km": 479.6544511517259, "timestamp": "2025-12-06T20:37:55.699807+00:00", "meta": {"OBJECT_NAME": "TIANMU-1 19", "OBJECT_ID": "2023-208A", "EPOCH": "2025-12-06T14:06:22.800096", "MEAN_MOTION": 15.27681711, "ECCENTRICITY": 0.00040631, "INCLINATION": 97.4398, "RA_OF_ASC_NODE": 91.6383, "ARG_OF_PERICENTER": 280.8101, "MEAN_ANOMALY": 79.2681, "EPHEMERIS_TYPE": 0, "CLASSIFICATION_TYPE": "U", "NORAD_CAT_ID": 58660, "ELEMENT_SET_NO": 999, "REV_AT_EPOCH": 10788, "BSTAR": 0.00058496329, "MEAN_MOTION_DOT": 0.00015771, "MEAN_MOTION_DDOT": 0}, "tle": {"line1": "1 58660U 23208A   25340.58776389  .00015771  00000+0  58496-3 0  9992", "line2": "2 58660  97.4398  91.6383 0004063 280.8101  79.2681 15.27681711107886"}}, "geometry": {"type": "Point", "coordinates": [81.61680187542527, 53.8203355592429]}}, {"type": "Feature", "properties": {"norad_id": 58661, "name": "TIANMU-1 20", "group": "weather", "lat": 74.5105019833775, "lon": -59.54060055460184, "alt_km": 476.3994270906878, "timestamp": "2025-12-06T20:37:55.699824+00:00", "meta": {"OBJECT_NAME": "TIANMU-1 20", "OBJECT_ID": "2023-208B", "EPOCH": "2025-12-06T13:53:50.026272", "MEAN_MOTION": 15.28872623, "ECCENTRICITY": 0.00063623, "INCLINATION": 97.4335, "RA_OF_ASC_NODE": 92.0713, "ARG_OF_PERICENTER": 291.9055, "MEAN_ANOMALY": 68.1508, "EPHEMERIS_TYPE": 0, "CLASSIFICATION_TYPE": "U", "NORAD_CAT_ID": 58661, "ELEMENT_SET_NO": 999, "REV_AT_EPOCH": 10795, "BSTAR": 0.00053808147, "MEAN_MOTION_DOT": 0.00015042, "MEAN_MOTION_DDOT": 0}, "tle": {"line1": "1 58661U 23208B   25340.57905123  .00015042  00000+0  53808-3 0  9995", "line2": "2 58661  97.4335  92.0713 0006362 291.9055  68.1508 15.28872623107953"}}, "geometry": {"type": "Point", "coordinates": [-59.54060055460184, 74.5105019833775]}}]}